ONEWEB-0159             
1 48062U 21025W   25178.88898023  .00000414  00000+0  10995-2 0  9993
2 48062  87.8956  30.6010 0001846  77.1708 282.9627 13.13471147207090
ONEWEB-0164             
1 48063U 21025X   25179.09886771  .00000175  00000+0  44414-3 0  9993
2 48063  87.8957  30.5696 0001819  86.8619 273.2718 13.13471024207110
ONEWEB-0167             
1 48064U 21025Y   25178.82208613  .00000249  00000+0  64647-3 0  9999
2 48064  87.8967  30.6541 0002615  83.1251 277.0175 13.13468581207055
ONEWEB-0166             
1 48065U 21025Z   25178.84494185 -.00000274  00000+0 -78661-3 0  9994
2 48065  87.8953  30.6060 0001708  79.7895 280.3427 13.13469577207136
ONEWEB-0151             
1 48066U 21025AA  25178.84663572 -.00000264  00000+0 -75811-3 0  9996
2 48066  87.8955  30.6282 0001940  85.9944 274.1407 13.13469888207074
ONEWEB-0170             
1 48067U 21025AB  25178.85510160 -.00000255  00000+0 -73346-3 0  9993
2 48067  87.8956  30.6316 0002073  98.2487 261.8878 13.13471771207036
ONEWEB-0168             
1 48068U 21025AC  25179.14457398 -.00000247  00000+0 -71004-3 0  9990
2 48068  87.8958  30.5552 0001859  83.4715 276.6626 13.13469574207089
ONEWEB-0173             
1 48069U 21025AD  25178.83140036 -.00000098  00000+0 -30431-3 0  9997
2 48069  87.8962  30.6259 0002222  78.2773 281.8605 13.13469275207286
